[
    {
        "Altitude(m)": 553468.2979508905,
        "Argument of Periapsis(deg)": 0.026491964442854003,
        "Eccentricity": 0.0,
        "Inclination(deg)": 53.0,
        "Latitude(deg)": 11.875144609938896,
        "Longitude(deg)": 140.88292899315252,
        "Mean Anomaly(deg)": 14.911871470310333,
        "RAAN(deg)": 234.96057347411207,
        "Satellite Name": "Starlink Shell 1 1054",
        "Satellite Number": 1054,
        "Semi-Major Axis(m)": 6931778.249405717,
        "Time(s)": 760
    },
    {
        "Altitude(m)": 553469.6994131262,
        "Argument of Periapsis(deg)": 0.02684054292236524,
        "Eccentricity": 0.0,
        "Inclination(deg)": 53.0,
        "Latitude(deg)": 12.37245664685849,
        "Longitude(deg)": 141.2356849009499,
        "Mean Anomaly(deg)": 15.538702673867078,
        "RAAN(deg)": 234.96005470403458,
        "Satellite Name": "Starlink Shell 1 1054",
        "Satellite Number": 1054,
        "Semi-Major Axis(m)": 6931778.249405717,
        "Time(s)": 770
    },
    {
        "Altitude(m)": 553473.6910161718,
        "Argument of Periapsis(deg)": 0.027189121401876473,
        "Eccentricity": 0.0,
        "Inclination(deg)": 53.0,
        "Latitude(deg)": 12.869182463300152,
        "Longitude(deg)": 141.58993586855343,
        "Mean Anomaly(deg)": 16.165533877423826,
        "RAAN(deg)": 234.9595359339571,
        "Satellite Name": "Starlink Shell 1 1054",
        "Satellite Number": 1054,
        "Semi-Major Axis(m)": 6931778.249405717,
        "Time(s)": 780
    },
    {
        "Altitude(m)": 553480.2480425898,
        "Argument of Periapsis(deg)": 0.02753769988138771,
        "Eccentricity": 0.0,
        "Inclination(deg)": 53.0,
        "Latitude(deg)": 13.365295178903551,
        "Longitude(deg)": 141.94574817589296,
        "Mean Anomaly(deg)": 16.792365080980524,
        "RAAN(deg)": 234.95901716387962,
        "Satellite Name": "Starlink Shell 1 1054",
        "Satellite Number": 1054,
        "Semi-Major Axis(m)": 6931778.249405717,
        "Time(s)": 790
    },
    {
        "Altitude(m)": 553489.3446062144,
        "Argument of Periapsis(deg)": 0.02788627836089895,
        "Eccentricity": 0.0,
        "Inclination(deg)": 53.0,
        "Latitude(deg)": 13.860767576872396,
        "Longitude(deg)": 142.30318827019585,
        "Mean Anomaly(deg)": 17.419196284537165,
        "RAAN(deg)": 234.95849839380216,
        "Satellite Name": "Starlink Shell 1 1054",
        "Satellite Number": 1054,
        "Semi-Major Axis(m)": 6931778.249405717,
        "Time(s)": 800
    },
    {
        "Altitude(m)": 553500.953667712,
        "Argument of Periapsis(deg)": 0.02823485684041019,
        "Eccentricity": 0.0,
        "Inclination(deg)": 53.0,
        "Latitude(deg)": 14.355572088272359,
        "Longitude(deg)": 142.6623232972302,
        "Mean Anomaly(deg)": 18.046027488093912,
        "RAAN(deg)": 234.9579796237247,
        "Satellite Name": "Starlink Shell 1 1054",
        "Satellite Number": 1054,
        "Semi-Major Axis(m)": 6931778.249405717,
        "Time(s)": 810
    },
    {
        "Altitude(m)": 553515.0470507072,
        "Argument of Periapsis(deg)": 0.028583435319921423,
        "Eccentricity": 0.0,
        "Inclination(deg)": 53.0,
        "Latitude(deg)": 14.849680776010395,
        "Longitude(deg)": 143.02322163257548,
        "Mean Anomaly(deg)": 18.67285869165066,
        "RAAN(deg)": 234.9574608536472,
        "Satellite Name": "Starlink Shell 1 1054",
        "Satellite Number": 1054,
        "Semi-Major Axis(m)": 6931778.249405717,
        "Time(s)": 820
    },
    {
        "Altitude(m)": 553531.5954584776,
        "Argument of Periapsis(deg)": 0.028932013799432665,
        "Eccentricity": 0.0,
        "Inclination(deg)": 53.0,
        "Latitude(deg)": 15.343065318484953,
        "Longitude(deg)": 143.38595190003232,
        "Mean Anomaly(deg)": 19.299689895207354,
        "RAAN(deg)": 234.95694208356971,
        "Satellite Name": "Starlink Shell 1 1054",
        "Satellite Number": 1054,
        "Semi-Major Axis(m)": 6931778.249405717,
        "Time(s)": 830
    },
    {
        "Altitude(m)": 553550.5684911823,
        "Argument of Periapsis(deg)": 0.029280592278943897,
        "Eccentricity": 0.0,
        "Inclination(deg)": 53.0,
        "Latitude(deg)": 15.835696992890878,
        "Longitude(deg)": 143.7505835028988,
        "Mean Anomaly(deg)": 19.926521098764,
        "RAAN(deg)": 234.9564233134923,
        "Satellite Name": "Starlink Shell 1 1054",
        "Satellite Number": 1054,
        "Semi-Major Axis(m)": 6931778.249405717,
        "Time(s)": 840
    },
    {
        "Altitude(m)": 553571.9346636134,
        "Argument of Periapsis(deg)": 0.029629170758455132,
        "Eccentricity": 0.0,
        "Inclination(deg)": 53.0,
        "Latitude(deg)": 16.3275466581677,
        "Longitude(deg)": 144.1171871552167,
        "Mean Anomaly(deg)": 20.553352302320747,
        "RAAN(deg)": 234.9559045434148,
        "Satellite Name": "Starlink Shell 1 1054",
        "Satellite Number": 1054,
        "Semi-Major Axis(m)": 6931778.249405717,
        "Time(s)": 850
    },
    {
        "Altitude(m)": 553595.6614234739,
        "Argument of Periapsis(deg)": 0.02997774923796637,
        "Eccentricity": 0.0,
        "Inclination(deg)": 53.0,
        "Latitude(deg)": 16.81858473758117,
        "Longitude(deg)": 144.48583373199406,
        "Mean Anomaly(deg)": 21.180183505877544,
        "RAAN(deg)": 234.9553857733373,
        "Satellite Name": "Starlink Shell 1 1054",
        "Satellite Number": 1054,
        "Semi-Major Axis(m)": 6931778.249405717,
        "Time(s)": 860
    },
    {
        "Altitude(m)": 553621.7151701692,
        "Argument of Periapsis(deg)": 0.030326327717477602,
        "Eccentricity": 0.0,
        "Inclination(deg)": 53.0,
        "Latitude(deg)": 17.30878120092078,
        "Longitude(deg)": 144.8565956408017,
        "Mean Anomaly(deg)": 21.80701470943414,
        "RAAN(deg)": 234.95486700325984,
        "Satellite Name": "Starlink Shell 1 1054",
        "Satellite Number": 1054,
        "Semi-Major Axis(m)": 6931778.249405717,
        "Time(s)": 870
    },
    {
        "Altitude(m)": 553650.0612741227,
        "Argument of Periapsis(deg)": 0.030674906196988847,
        "Eccentricity": 0.0,
        "Inclination(deg)": 53.0,
        "Latitude(deg)": 17.79810554630752,
        "Longitude(deg)": 145.2295456718004,
        "Mean Anomaly(deg)": 22.433845912990936,
        "RAAN(deg)": 234.9543482331824,
        "Satellite Name": "Starlink Shell 1 1054",
        "Satellite Number": 1054,
        "Semi-Major Axis(m)": 6931778.249405717,
        "Time(s)": 880
    },
    {
        "Altitude(m)": 553680.6640965207,
        "Argument of Periapsis(deg)": 0.031023484676500086,
        "Eccentricity": 0.0,
        "Inclination(deg)": 53.0,
        "Latitude(deg)": 18.28652678159249,
        "Longitude(deg)": 145.60475752859148,
        "Mean Anomaly(deg)": 23.060677116547634,
        "RAAN(deg)": 234.9538294631049,
        "Satellite Name": "Starlink Shell 1 1054",
        "Satellite Number": 1054,
        "Semi-Major Axis(m)": 6931778.249405717,
        "Time(s)": 890
    },
    {
        "Altitude(m)": 553713.4870096237,
        "Argument of Periapsis(deg)": 0.03137206315601132,
        "Eccentricity": 0.0,
        "Inclination(deg)": 53.0,
        "Latitude(deg)": 18.774013405339563,
        "Longitude(deg)": 145.982306358881,
        "Mean Anomaly(deg)": 23.687508320104325,
        "RAAN(deg)": 234.95331069302745,
        "Satellite Name": "Starlink Shell 1 1054",
        "Satellite Number": 1054,
        "Semi-Major Axis(m)": 6931778.249405717,
        "Time(s)": 900
    },
    {
        "Altitude(m)": 553748.492417466,
        "Argument of Periapsis(deg)": 0.03172064163552255,
        "Eccentricity": 0.0,
        "Inclination(deg)": 53.0,
        "Latitude(deg)": 19.260533387379542,
        "Longitude(deg)": 146.3622677720401,
        "Mean Anomaly(deg)": 24.314339523661026,
        "RAAN(deg)": 234.95279192294996,
        "Satellite Name": "Starlink Shell 1 1054",
        "Satellite Number": 1054,
        "Semi-Major Axis(m)": 6931778.249405717,
        "Time(s)": 910
    },
    {
        "Altitude(m)": 553785.6417770671,
        "Argument of Periapsis(deg)": 0.0320692201150338,
        "Eccentricity": 0.0,
        "Inclination(deg)": 53.0,
        "Latitude(deg)": 19.746054148922497,
        "Longitude(deg)": 146.74471836926455,
        "Mean Anomaly(deg)": 24.941170727217767,
        "RAAN(deg)": 234.95227315287246,
        "Satellite Name": "Starlink Shell 1 1054",
        "Satellite Number": 1054,
        "Semi-Major Axis(m)": 6931778.249405717,
        "Time(s)": 920
    },
    {
        "Altitude(m)": 553824.8956200486,
        "Argument of Periapsis(deg)": 0.032417798594545036,
        "Eccentricity": 0.0,
        "Inclination(deg)": 53.0,
        "Latitude(deg)": 20.23054254221726,
        "Longitude(deg)": 147.129736273404,
        "Mean Anomaly(deg)": 25.568001930774514,
        "RAAN(deg)": 234.95175438279503,
        "Satellite Name": "Starlink Shell 1 1054",
        "Satellite Number": 1054,
        "Semi-Major Axis(m)": 6931778.249405717,
        "Time(s)": 930
    },
    {
        "Altitude(m)": 553866.2135747322,
        "Argument of Periapsis(deg)": 0.03276637707405627,
        "Eccentricity": 0.0,
        "Inclination(deg)": 53.0,
        "Latitude(deg)": 20.713964829751248,
        "Longitude(deg)": 147.51740014553323,
        "Mean Anomaly(deg)": 26.19483313433121,
        "RAAN(deg)": 234.95123561271754,
        "Satellite Name": "Starlink Shell 1 1054",
        "Satellite Number": 1054,
        "Semi-Major Axis(m)": 6931778.249405717,
        "Time(s)": 940
    }
]